CCSDS_OMM_VERS = 2.0
CREATION_DATE  = 
ORIGINATOR     = 

OBJECT_NAME    = STARLINK-35858
OBJECT_ID      = 2025-280N
CENTER_NAME    = EARTH
REF_FRAME      = TEME
TIME_SYSTEM    = UTC
MEAN_ELEMENT_THEORY = SGP/SGP4

EPOCH          = 2025-12-30T04:00:03.000096
MEAN_MOTION    = 15.44023634
ECCENTRICITY   = .0003382
INCLINATION    = 69.9998
RA_OF_ASC_NODE = 150.6865
ARG_OF_PERICENTER = 277.1231
MEAN_ANOMALY   = 256.4070

EPHEMERIS_TYPE = 0
CLASSIFICATION_TYPE = U
NORAD_CAT_ID   = 66833
ELEMENT_SET_NO = 999
REV_AT_EPOCH   = 569
BSTAR          = -.50352E-1
MEAN_MOTION_DOT = -.2050441E-1
MEAN_MOTION_DDOT = 0

CCSDS_OMM_VERS = 2.0
CREATION_DATE  = 
ORIGINATOR     = 

OBJECT_NAME    = STARLINK-35840
OBJECT_ID      = 2025-280P
CENTER_NAME    = EARTH
REF_FRAME      = TEME
TIME_SYSTEM    = UTC
MEAN_ELEMENT_THEORY = SGP/SGP4

EPOCH          = 2025-12-30T04:00:03.000096
MEAN_MOTION    = 15.46095516
ECCENTRICITY   = .0003318
INCLINATION    = 69.9996
RA_OF_ASC_NODE = 150.6692
ARG_OF_PERICENTER = 277.5765
MEAN_ANOMALY   = 270.1215

EPHEMERIS_TYPE = 0
CLASSIFICATION_TYPE = U
NORAD_CAT_ID   = 66834
ELEMENT_SET_NO = 999
REV_AT_EPOCH   = 569
BSTAR          = -.46995E-1
MEAN_MOTION_DOT = -.2054367E-1
MEAN_MOTION_DDOT = 0

CCSDS_OMM_VERS = 2.0
CREATION_DATE  = 
ORIGINATOR     = 

OBJECT_NAME    = STARLINK-35890
OBJECT_ID      = 2025-280Q
CENTER_NAME    = EARTH
REF_FRAME      = TEME
TIME_SYSTEM    = UTC
MEAN_ELEMENT_THEORY = SGP/SGP4

EPOCH          = 2025-12-30T04:00:03.000096
MEAN_MOTION    = 15.44058447
ECCENTRICITY   = .000329
INCLINATION    = 69.9995
RA_OF_ASC_NODE = 150.6806
ARG_OF_PERICENTER = 278.7539
MEAN_ANOMALY   = 258.8528

EPHEMERIS_TYPE = 0
CLASSIFICATION_TYPE = U
NORAD_CAT_ID   = 66835
ELEMENT_SET_NO = 999
REV_AT_EPOCH   = 569
BSTAR          = -.49931E-1
MEAN_MOTION_DOT = -.2037249E-1
MEAN_MOTION_DDOT = 0

CCSDS_OMM_VERS = 2.0
CREATION_DATE  = 
ORIGINATOR     = 

OBJECT_NAME    = STARLINK-35838
OBJECT_ID      = 2025-280R
CENTER_NAME    = EARTH
REF_FRAME      = TEME
TIME_SYSTEM    = UTC
MEAN_ELEMENT_THEORY = SGP/SGP4

EPOCH          = 2025-12-30T04:00:03.000096
MEAN_MOTION    = 15.44126616
ECCENTRICITY   = .000329
INCLINATION    = 69.9995
RA_OF_ASC_NODE = 150.6778
ARG_OF_PERICENTER = 277.2431
MEAN_ANOMALY   = 262.7114

EPHEMERIS_TYPE = 0
CLASSIFICATION_TYPE = U
NORAD_CAT_ID   = 66836
ELEMENT_SET_NO = 999
REV_AT_EPOCH   = 569
BSTAR          = -.50251E-1
MEAN_MOTION_DOT = -.2053092E-1
MEAN_MOTION_DDOT = 0

CCSDS_OMM_VERS = 2.0
CREATION_DATE  = 
ORIGINATOR     = 

OBJECT_NAME    = STARLINK-35729
OBJECT_ID      = 2025-280S
CENTER_NAME    = EARTH
REF_FRAME      = TEME
TIME_SYSTEM    = UTC
MEAN_ELEMENT_THEORY = SGP/SGP4

EPOCH          = 2025-12-30T04:00:03.000096
MEAN_MOTION    = 15.39496018
ECCENTRICITY   = .0003496
INCLINATION    = 69.9995
RA_OF_ASC_NODE = 150.7224
ARG_OF_PERICENTER = 281.2767
MEAN_ANOMALY   = 221.1006

EPHEMERIS_TYPE = 0
CLASSIFICATION_TYPE = U
NORAD_CAT_ID   = 66837
ELEMENT_SET_NO = 999
REV_AT_EPOCH   = 569
BSTAR          = -.58749E-1
MEAN_MOTION_DOT = -.20545E-1
MEAN_MOTION_DDOT = 0

CCSDS_OMM_VERS = 2.0
CREATION_DATE  = 
ORIGINATOR     = 

OBJECT_NAME    = STARLINK-35886
OBJECT_ID      = 2025-280T
CENTER_NAME    = EARTH
REF_FRAME      = TEME
TIME_SYSTEM    = UTC
MEAN_ELEMENT_THEORY = SGP/SGP4

EPOCH          = 2025-12-30T04:00:03.000096
MEAN_MOTION    = 15.46393453
ECCENTRICITY   = .0003332
INCLINATION    = 70.0000
RA_OF_ASC_NODE = 150.6552
ARG_OF_PERICENTER = 277.2110
MEAN_ANOMALY   = 281.5995

EPHEMERIS_TYPE = 0
CLASSIFICATION_TYPE = U
NORAD_CAT_ID   = 66838
ELEMENT_SET_NO = 999
REV_AT_EPOCH   = 569
BSTAR          = -.46084E-1
MEAN_MOTION_DOT = -.20375E-1
MEAN_MOTION_DDOT = 0

CCSDS_OMM_VERS = 2.0
CREATION_DATE  = 
ORIGINATOR     = 

OBJECT_NAME    = STARLINK-35717
OBJECT_ID      = 2025-280U
CENTER_NAME    = EARTH
REF_FRAME      = TEME
TIME_SYSTEM    = UTC
MEAN_ELEMENT_THEORY = SGP/SGP4

EPOCH          = 2025-12-30T04:00:03.000096
MEAN_MOTION    = 15.44266742
ECCENTRICITY   = .000322
INCLINATION    = 69.9999
RA_OF_ASC_NODE = 150.6717
ARG_OF_PERICENTER = 279.1735
MEAN_ANOMALY   = 265.6266

EPHEMERIS_TYPE = 0
CLASSIFICATION_TYPE = U
NORAD_CAT_ID   = 66839
ELEMENT_SET_NO = 999
REV_AT_EPOCH   = 569
BSTAR          = -.4963E-1
MEAN_MOTION_DOT = -.2039125E-1
MEAN_MOTION_DDOT = 0

CCSDS_OMM_VERS = 2.0
CREATION_DATE  = 
ORIGINATOR     = 

OBJECT_NAME    = STARLINK-35837
OBJECT_ID      = 2025-280V
CENTER_NAME    = EARTH
REF_FRAME      = TEME
TIME_SYSTEM    = UTC
MEAN_ELEMENT_THEORY = SGP/SGP4

EPOCH          = 2025-12-30T04:00:03.000096
MEAN_MOTION    = 15.40279806
ECCENTRICITY   = .0003397
INCLINATION    = 69.9996
RA_OF_ASC_NODE = 150.7035
ARG_OF_PERICENTER = 277.5992
MEAN_ANOMALY   = 238.6901

EPHEMERIS_TYPE = 0
CLASSIFICATION_TYPE = U
NORAD_CAT_ID   = 66840
ELEMENT_SET_NO = 999
REV_AT_EPOCH   = 569
BSTAR          = -.56052E-1
MEAN_MOTION_DOT = -.2016387E-1
MEAN_MOTION_DDOT = 0

CCSDS_OMM_VERS = 2.0
CREATION_DATE  = 
ORIGINATOR     = 

OBJECT_NAME    = STARLINK-35715
OBJECT_ID      = 2025-280W
CENTER_NAME    = EARTH
REF_FRAME      = TEME
TIME_SYSTEM    = UTC
MEAN_ELEMENT_THEORY = SGP/SGP4

EPOCH          = 2025-12-30T04:00:03.000096
MEAN_MOTION    = 15.40289882
ECCENTRICITY   = .000349
INCLINATION    = 70.0001
RA_OF_ASC_NODE = 150.7019
ARG_OF_PERICENTER = 277.7572
MEAN_ANOMALY   = 240.4810

EPHEMERIS_TYPE = 0
CLASSIFICATION_TYPE = U
NORAD_CAT_ID   = 66841
ELEMENT_SET_NO = 999
REV_AT_EPOCH   = 569
BSTAR          = -.56379E-1
MEAN_MOTION_DOT = -.2027533E-1
MEAN_MOTION_DDOT = 0

CCSDS_OMM_VERS = 2.0
CREATION_DATE  = 
ORIGINATOR     = 

OBJECT_NAME    = STARLINK-35769
OBJECT_ID      = 2025-280X
CENTER_NAME    = EARTH
REF_FRAME      = TEME
TIME_SYSTEM    = UTC
MEAN_ELEMENT_THEORY = SGP/SGP4

EPOCH          = 2025-12-30T04:00:03.000096
MEAN_MOTION    = 15.46449153
ECCENTRICITY   = .0003236
INCLINATION    = 70.0001
RA_OF_ASC_NODE = 150.6486
ARG_OF_PERICENTER = 275.7302
MEAN_ANOMALY   = 289.0756

EPHEMERIS_TYPE = 0
CLASSIFICATION_TYPE = U
NORAD_CAT_ID   = 66842
ELEMENT_SET_NO = 999
REV_AT_EPOCH   = 569
BSTAR          = -.46156E-1
MEAN_MOTION_DOT = -.2043778E-1
MEAN_MOTION_DDOT = 0

CCSDS_OMM_VERS = 2.0
CREATION_DATE  = 
ORIGINATOR     = 

OBJECT_NAME    = STARLINK-35997
OBJECT_ID      = 2025-280Y
CENTER_NAME    = EARTH
REF_FRAME      = TEME
TIME_SYSTEM    = UTC
MEAN_ELEMENT_THEORY = SGP/SGP4

EPOCH          = 2025-12-30T04:00:03.000096
MEAN_MOTION    = 15.44853076
ECCENTRICITY   = .0003254
INCLINATION    = 70.0000
RA_OF_ASC_NODE = 150.6528
ARG_OF_PERICENTER = 277.1914
MEAN_ANOMALY   = 282.7513

EPHEMERIS_TYPE = 0
CLASSIFICATION_TYPE = U
NORAD_CAT_ID   = 66843
ELEMENT_SET_NO = 999
REV_AT_EPOCH   = 569
BSTAR          = -.48797E-1
MEAN_MOTION_DOT = -.2044848E-1
MEAN_MOTION_DDOT = 0

CCSDS_OMM_VERS = 2.0
CREATION_DATE  = 
ORIGINATOR     = 

OBJECT_NAME    = STARLINK-36073
OBJECT_ID      = 2025-280Z
CENTER_NAME    = EARTH
REF_FRAME      = TEME
TIME_SYSTEM    = UTC
MEAN_ELEMENT_THEORY = SGP/SGP4

EPOCH          = 2025-12-30T04:00:03.000096
MEAN_MOTION    = 15.42894216
ECCENTRICITY   = .0003294
INCLINATION    = 69.9996
RA_OF_ASC_NODE = 150.6717
ARG_OF_PERICENTER = 275.8726
MEAN_ANOMALY   = 268.7093

EPHEMERIS_TYPE = 0
CLASSIFICATION_TYPE = U
NORAD_CAT_ID   = 66844
ELEMENT_SET_NO = 999
REV_AT_EPOCH   = 569
BSTAR          = -.52225E-1
MEAN_MOTION_DOT = -.2047007E-1
MEAN_MOTION_DDOT = 0

