STARLINK-35858          
1 66833U 25280N   25364.16670139 -.02050441  00000+0 -50352-1 0  9999
2 66833  69.9998 150.6865 0003382 277.1231 256.4070 15.44023634  5694
STARLINK-35840          
1 66834U 25280P   25364.16670139 -.02054367  00000+0 -46995-1 0  9999
2 66834  69.9996 150.6692 0003318 277.5765 270.1215 15.46095516  5690
STARLINK-35890          
1 66835U 25280Q   25364.16670139 -.02037249  00000+0 -49931-1 0  9993
2 66835  69.9995 150.6806 0003290 278.7539 258.8528 15.44058447  5698
STARLINK-35838          
1 66836U 25280R   25364.16670139 -.02053092  00000+0 -50251-1 0  9995
2 66836  69.9995 150.6778 0003290 277.2431 262.7114 15.44126616  5691
STARLINK-35729          
1 66837U 25280S   25364.16670139 -.02054500  00000+0 -58749-1 0  9991
2 66837  69.9995 150.7224 0003496 281.2767 221.1006 15.39496018  5693
STARLINK-35886          
1 66838U 25280T   25364.16670139 -.02037500  00000+0 -46084-1 0  9992
2 66838  70.0000 150.6552 0003332 277.2110 281.5995 15.46393453  5697
STARLINK-35717          
1 66839U 25280U   25364.16670139 -.02039125  00000+0 -49630-1 0  9998
2 66839  69.9999 150.6717 0003220 279.1735 265.6266 15.44266742  5697
STARLINK-35837          
1 66840U 25280V   25364.16670139 -.02016387  00000+0 -56052-1 0  9991
2 66840  69.9996 150.7035 0003397 277.5992 238.6901 15.40279806  5699
STARLINK-35715          
1 66841U 25280W   25364.16670139 -.02027533  00000+0 -56379-1 0  9999
2 66841  70.0001 150.7019 0003490 277.7572 240.4810 15.40289882  5697
STARLINK-35769          
1 66842U 25280X   25364.16670139 -.02043778  00000+0 -46156-1 0  9991
2 66842  70.0001 150.6486 0003236 275.7302 289.0756 15.46449153  5695
STARLINK-35997          
1 66843U 25280Y   25364.16670139 -.02044848  00000+0 -48797-1 0  9994
2 66843  70.0000 150.6528 0003254 277.1914 282.7513 15.44853076  5699
STARLINK-36073          
1 66844U 25280Z   25364.16670139 -.02047007  00000+0 -52225-1 0  9996
2 66844  69.9996 150.6717 0003294 275.8726 268.7093 15.42894216  5697
